	12/05/2018 23:50->	
METAR EKBI 122350Z AUTO 10004KT 060V130 9999NDV OVC069///
           12/07 Q1018=
	12/05/2018 23:20->	
METAR EKBI 122320Z AUTO 10003KT 9999NDV OVC069/// 12/07 Q1018=
	12/05/2018 22:50->	
METAR EKBI 122250Z AUTO 08006KT 9999NDV OVC072/// 12/06 Q1018=
	12/05/2018 22:20->	
METAR EKBI 122220Z AUTO 09008KT 9999NDV OVC073/// 13/06 Q1018=
	12/05/2018 21:50->	
METAR EKBI 122150Z AUTO 09009KT 9999NDV BKN071/// 13/06 Q1018=
	12/05/2018 21:20->	
METAR EKBI 122120Z AUTO 10006KT 9999NDV BKN073/// 12/06 Q1018=
	12/05/2018 20:50->	
METAR EKBI 122050Z AUTO 10006KT 9999NDV BKN075/// 12/05 Q1018=
	12/05/2018 20:20->	
METAR EKBI 122020Z AUTO 10006KT 9999NDV BKN077/// 11/05 Q1018=
	12/05/2018 19:50->	
METAR EKBI 121950Z AUTO 10007KT 9999NDV SCT077/// 12/04 Q1018=
	12/05/2018 19:20->	
METAR EKBI 121920Z AUTO 10005KT 9999NDV NCD 12/04 Q1018=
	12/05/2018 18:50->	
METAR EKBI 121850Z AUTO 09005KT 9999NDV NCD 13/05 Q1018=
	12/05/2018 18:20->	
METAR EKBI 121820Z AUTO 08006KT 9999NDV NCD 13/06 Q1018=
	12/05/2018 17:50->	
METAR EKBI 121750Z AUTO 08010KT 9999NDV BKN079/// 16/06 Q1018=
	12/05/2018 17:20->	
METAR EKBI 121720Z AUTO 08008KT 9999NDV BKN080/// 15/06 Q1018=
	12/05/2018 16:50->	
METAR EKBI 121650Z AUTO 09010KT 9999NDV BKN080/// 17/07 Q1018=
	12/05/2018 16:20->	
METAR EKBI 121620Z AUTO 11007KT 080V140 9999NDV NCD 18/08
           Q1018=
	12/05/2018 15:50->	
METAR EKBI 121550Z AUTO 10007KT 080V140 9999NDV NCD 17/08
           Q1018=
	12/05/2018 15:20->	
METAR EKBI 121520Z AUTO 10008KT 080V140 9999NDV FEW078///
           18/08 Q1018=
	12/05/2018 14:50->	
METAR EKBI 121450Z 10009KT 060V120 CAVOK 19/09 Q1018=
	12/05/2018 14:20->	
METAR EKBI 121420Z 10009KT 070V130 CAVOK 18/09 Q1018=
	12/05/2018 13:50->	
METAR EKBI 121350Z 08010KT 050V120 9999 FEW039 FEW040TCU
           18/09 Q1019=
	12/05/2018 13:20->	
METAR EKBI 121320Z 09010KT 060V130 9999 SCT039 FEW040TCU
           18/09 Q1019=
	12/05/2018 12:50->	
METAR EKBI 121250Z 09008KT 060V130 9999 FEW039 FEW040TCU
           19/10 Q1019=
	12/05/2018 12:20->	
METAR EKBI 121220Z AUTO 10007KT 070V150 9999NDV FEW087///
           18/08 Q1019=
	12/05/2018 11:50->	
METAR EKBI 121150Z AUTO 09008KT 060V130 9999NDV OVC087///
           18/08 Q1019=
	12/05/2018 11:20->	
METAR EKBI 121120Z AUTO 09007KT 060V120 9999NDV OVC085///
           16/09 Q1020=
	12/05/2018 10:50->	
METAR EKBI 121050Z AUTO 08007KT 9999NDV BKN081/// 15/09 Q1020=
	12/05/2018 10:20->	
METAR EKBI 121020Z AUTO 11006KT 070V150 9999NDV BKN067///
           15/09 Q1020=
	12/05/2018 09:50->	
METAR EKBI 120950Z AUTO 10005KT 9999NDV OVC052/// 14/09 Q1020=
	12/05/2018 09:20->	
METAR EKBI 120920Z AUTO 10004KT 9999NDV BKN052/// 14/09 Q1020=
	12/05/2018 08:50->	
METAR EKBI 120850Z AUTO 11005KT 070V130 9999NDV BKN053///
           15/09 Q1020=
12/05/2018 08:20->	
METAR EKBI 120820Z AUTO 10006KT 070V130 9999NDV BKN047///
           14/09 Q1020=
12/05/2018 07:50->	
METAR EKBI 120750Z AUTO 10007KT 9999NDV BKN045/// BKN058///
           BKN075/// 14/08 Q1020=
12/05/2018 07:20->	
METAR EKBI 120720Z AUTO 08005KT 060V120 9999NDV FEW059///
           BKN077/// 14/08 Q1020=
12/05/2018 06:50->	
METAR EKBI 120650Z AUTO 10006KT 9999NDV BKN079/// 13/08 Q1020=
12/05/2018 06:20->	
METAR EKBI 120620Z AUTO 10005KT 9999NDV BKN083/// 13/09 Q1020=
12/05/2018 05:50->	
METAR EKBI 120550Z AUTO 11004KT 9999NDV BKN084/// 11/08 Q1020=
12/05/2018 05:20->	
METAR EKBI 120520Z AUTO 09003KT 9999NDV BKN084/// 10/08 Q1020=
12/05/2018 04:50->	
METAR EKBI 120450Z AUTO 09003KT 9999NDV BKN084/// 08/07 Q1020=
12/05/2018 04:20->	
METAR EKBI 120420Z 10003KT CAVOK 06/06 Q1020=
12/05/2018 03:50->	
METAR EKBI 120350Z 10001KT 9999 MIFG NSC 05/04 Q1020=
12/05/2018 03:20->	
METAR EKBI 120320Z 11002KT 9999 MIFG NSC 04/04 Q1019=
12/05/2018 02:50->	
METAR EKBI 120250Z 11002KT 9999 MIFG SKC 05/05 Q1019=
12/05/2018 02:20->	
METAR EKBI 120220Z 07001KT 9999 MIFG SKC 04/03 Q1019=
12/05/2018 01:50->	
METAR EKBI 120150Z 00000KT 9999 MIFG SKC 04/03 Q1019=
12/05/2018 01:20->	
METAR EKBI 120120Z 10001KT 9999 MIFG SKC 04/04 Q1019=
	12/05/2018 00:50->	
METAR EKBI 120050Z 00000KT 9999 MIFG SKC 05/04 Q1019=
	12/05/2018 00:20->	
METAR EKBI 120020Z AUTO 00000KT 9999NDV NCD 05/04 Q1020=